STARLINK-36538          
1 67512U 26012V   26038.58335648 -.01913482  00000+0 -21263-1 0  9997
2 67512  42.9991 126.1503 0001175 291.7010 211.9889 15.65168729  4236
STARLINK-36531          
1 67513U 26012W   26038.58335648 -.01917263  00000+0 -20562-1 0  9990
2 67513  42.9994 126.1088 0001163 289.8181 230.7157 15.66050873  4173
STARLINK-36530          
1 67514U 26012X   26038.58335648 -.01917814  00000+0 -21376-1 0  9997
2 67514  42.9993 126.1270 0001220 288.5181 224.3987 15.65099868  4172
STARLINK-36543          
1 67515U 26012Y   26038.58335648 -.01913662  00000+0 -22202-1 0  9994
2 67515  42.9993 126.1504 0001201 288.5013 214.7856 15.64096062  4176
STARLINK-36537          
1 67516U 26012Z   26038.58335648 -.01918700  00000+0 -20505-1 0  9997
2 67516  42.9992 126.0441 0001080 287.8418 257.9132 15.66140034  4178
STARLINK-36544          
1 67517U 26012AA  26038.58335648 -.01921081  00000+0 -19785-1 0  9992
2 67517  42.9992 126.0318 0001129 285.3317 265.4927 15.67048303  4237
STARLINK-36412          
1 67518U 26012AB  26038.58335648 -.01914282  00000+0 -20352-1 0  9990
2 67518  42.9996 125.9978 0001031 279.2968 285.0418 15.66260680  4177
STARLINK-36415          
1 67519U 26012AC  26038.58335648 -.01916147  00000+0 -20209-1 0  9994
2 67519  42.9994 125.9740 0001031 276.4137 297.0327 15.66460626  4387
STARLINK-36547          
1 67520U 26012AD  26038.58335648 -.01916853  00000+0 -20531-1 0  9998
2 67520  42.9994 126.0145 0001025 282.3672 274.8872 15.66083209  4176
STARLINK-36444          
1 67521U 26012AE  26038.58335648 -.01909726  00000+0 -21876-1 0  9993
2 67521  42.9994 126.0891 0001098 289.1454 238.3753 15.64407994  4170
HULIANWANG DIGUI-146    
1 67522U 26013A   26038.15232905  .00000015  00000+0  13985-3 0  9994
2 67522  50.0086 109.7340 0000802 330.0711  30.0139 13.85084532  2638
HULIANWANG DIGUI-147    
1 67523U 26013B   26038.15078388  .00000005  00000+0  13114-3 0  9991
2 67523  50.0047 109.7100 0001004  18.7436 341.3497 13.85068270  2635
