CCSDS_OMM_VERS = 2.0
CREATION_DATE  = 
ORIGINATOR     = 

OBJECT_NAME    = STARLINK-36538
OBJECT_ID      = 2026-012V
CENTER_NAME    = EARTH
REF_FRAME      = TEME
TIME_SYSTEM    = UTC
MEAN_ELEMENT_THEORY = SGP/SGP4

EPOCH          = 2026-02-07T14:00:01.999872
MEAN_MOTION    = 15.65168729
ECCENTRICITY   = .00011756
INCLINATION    = 42.9991
RA_OF_ASC_NODE = 126.1503
ARG_OF_PERICENTER = 291.7010
MEAN_ANOMALY   = 211.9889

EPHEMERIS_TYPE = 0
CLASSIFICATION_TYPE = U
NORAD_CAT_ID   = 67512
ELEMENT_SET_NO = 999
REV_AT_EPOCH   = 423
BSTAR          = -.21262913E-1
MEAN_MOTION_DOT = -.1913482E-1
MEAN_MOTION_DDOT = 0

CCSDS_OMM_VERS = 2.0
CREATION_DATE  = 
ORIGINATOR     = 

OBJECT_NAME    = STARLINK-36531
OBJECT_ID      = 2026-012W
CENTER_NAME    = EARTH
REF_FRAME      = TEME
TIME_SYSTEM    = UTC
MEAN_ELEMENT_THEORY = SGP/SGP4

EPOCH          = 2026-02-07T14:00:01.999872
MEAN_MOTION    = 15.66050873
ECCENTRICITY   = .00011633
INCLINATION    = 42.9994
RA_OF_ASC_NODE = 126.1088
ARG_OF_PERICENTER = 289.8181
MEAN_ANOMALY   = 230.7157

EPHEMERIS_TYPE = 0
CLASSIFICATION_TYPE = U
NORAD_CAT_ID   = 67513
ELEMENT_SET_NO = 999
REV_AT_EPOCH   = 417
BSTAR          = -.20561596E-1
MEAN_MOTION_DOT = -.1917263E-1
MEAN_MOTION_DDOT = 0

CCSDS_OMM_VERS = 2.0
CREATION_DATE  = 
ORIGINATOR     = 

OBJECT_NAME    = STARLINK-36530
OBJECT_ID      = 2026-012X
CENTER_NAME    = EARTH
REF_FRAME      = TEME
TIME_SYSTEM    = UTC
MEAN_ELEMENT_THEORY = SGP/SGP4

EPOCH          = 2026-02-07T14:00:01.999872
MEAN_MOTION    = 15.65099868
ECCENTRICITY   = .00012202
INCLINATION    = 42.9993
RA_OF_ASC_NODE = 126.1270
ARG_OF_PERICENTER = 288.5181
MEAN_ANOMALY   = 224.3987

EPHEMERIS_TYPE = 0
CLASSIFICATION_TYPE = U
NORAD_CAT_ID   = 67514
ELEMENT_SET_NO = 999
REV_AT_EPOCH   = 417
BSTAR          = -.21376371E-1
MEAN_MOTION_DOT = -.1917814E-1
MEAN_MOTION_DDOT = 0

CCSDS_OMM_VERS = 2.0
CREATION_DATE  = 
ORIGINATOR     = 

OBJECT_NAME    = STARLINK-36543
OBJECT_ID      = 2026-012Y
CENTER_NAME    = EARTH
REF_FRAME      = TEME
TIME_SYSTEM    = UTC
MEAN_ELEMENT_THEORY = SGP/SGP4

EPOCH          = 2026-02-07T14:00:01.999872
MEAN_MOTION    = 15.64096062
ECCENTRICITY   = .0001201
INCLINATION    = 42.9993
RA_OF_ASC_NODE = 126.1504
ARG_OF_PERICENTER = 288.5013
MEAN_ANOMALY   = 214.7856

EPHEMERIS_TYPE = 0
CLASSIFICATION_TYPE = U
NORAD_CAT_ID   = 67515
ELEMENT_SET_NO = 999
REV_AT_EPOCH   = 417
BSTAR          = -.22202487E-1
MEAN_MOTION_DOT = -.1913662E-1
MEAN_MOTION_DDOT = 0

CCSDS_OMM_VERS = 2.0
CREATION_DATE  = 
ORIGINATOR     = 

OBJECT_NAME    = STARLINK-36537
OBJECT_ID      = 2026-012Z
CENTER_NAME    = EARTH
REF_FRAME      = TEME
TIME_SYSTEM    = UTC
MEAN_ELEMENT_THEORY = SGP/SGP4

EPOCH          = 2026-02-07T14:00:01.999872
MEAN_MOTION    = 15.66140034
ECCENTRICITY   = .00010801
INCLINATION    = 42.9992
RA_OF_ASC_NODE = 126.0441
ARG_OF_PERICENTER = 287.8418
MEAN_ANOMALY   = 257.9132

EPHEMERIS_TYPE = 0
CLASSIFICATION_TYPE = U
NORAD_CAT_ID   = 67516
ELEMENT_SET_NO = 999
REV_AT_EPOCH   = 417
BSTAR          = -.20505129E-1
MEAN_MOTION_DOT = -.19187E-1
MEAN_MOTION_DDOT = 0

CCSDS_OMM_VERS = 2.0
CREATION_DATE  = 
ORIGINATOR     = 

OBJECT_NAME    = STARLINK-36544
OBJECT_ID      = 2026-012AA
CENTER_NAME    = EARTH
REF_FRAME      = TEME
TIME_SYSTEM    = UTC
MEAN_ELEMENT_THEORY = SGP/SGP4

EPOCH          = 2026-02-07T14:00:01.999872
MEAN_MOTION    = 15.67048303
ECCENTRICITY   = .00011298
INCLINATION    = 42.9992
RA_OF_ASC_NODE = 126.0318
ARG_OF_PERICENTER = 285.3317
MEAN_ANOMALY   = 265.4927

EPHEMERIS_TYPE = 0
CLASSIFICATION_TYPE = U
NORAD_CAT_ID   = 67517
ELEMENT_SET_NO = 999
REV_AT_EPOCH   = 423
BSTAR          = -.19784661E-1
MEAN_MOTION_DOT = -.1921081E-1
MEAN_MOTION_DDOT = 0

CCSDS_OMM_VERS = 2.0
CREATION_DATE  = 
ORIGINATOR     = 

OBJECT_NAME    = STARLINK-36412
OBJECT_ID      = 2026-012AB
CENTER_NAME    = EARTH
REF_FRAME      = TEME
TIME_SYSTEM    = UTC
MEAN_ELEMENT_THEORY = SGP/SGP4

EPOCH          = 2026-02-07T14:00:01.999872
MEAN_MOTION    = 15.66260680
ECCENTRICITY   = .0001031
INCLINATION    = 42.9996
RA_OF_ASC_NODE = 125.9978
ARG_OF_PERICENTER = 279.2968
MEAN_ANOMALY   = 285.0418

EPHEMERIS_TYPE = 0
CLASSIFICATION_TYPE = U
NORAD_CAT_ID   = 67518
ELEMENT_SET_NO = 999
REV_AT_EPOCH   = 417
BSTAR          = -.20351822E-1
MEAN_MOTION_DOT = -.1914282E-1
MEAN_MOTION_DDOT = 0

CCSDS_OMM_VERS = 2.0
CREATION_DATE  = 
ORIGINATOR     = 

OBJECT_NAME    = STARLINK-36415
OBJECT_ID      = 2026-012AC
CENTER_NAME    = EARTH
REF_FRAME      = TEME
TIME_SYSTEM    = UTC
MEAN_ELEMENT_THEORY = SGP/SGP4

EPOCH          = 2026-02-07T14:00:01.999872
MEAN_MOTION    = 15.66460626
ECCENTRICITY   = .00010319
INCLINATION    = 42.9994
RA_OF_ASC_NODE = 125.9740
ARG_OF_PERICENTER = 276.4137
MEAN_ANOMALY   = 297.0327

EPHEMERIS_TYPE = 0
CLASSIFICATION_TYPE = U
NORAD_CAT_ID   = 67519
ELEMENT_SET_NO = 999
REV_AT_EPOCH   = 438
BSTAR          = -.20208621E-1
MEAN_MOTION_DOT = -.1916147E-1
MEAN_MOTION_DDOT = 0

CCSDS_OMM_VERS = 2.0
CREATION_DATE  = 
ORIGINATOR     = 

OBJECT_NAME    = STARLINK-36547
OBJECT_ID      = 2026-012AD
CENTER_NAME    = EARTH
REF_FRAME      = TEME
TIME_SYSTEM    = UTC
MEAN_ELEMENT_THEORY = SGP/SGP4

EPOCH          = 2026-02-07T14:00:01.999872
MEAN_MOTION    = 15.66083209
ECCENTRICITY   = .00010256
INCLINATION    = 42.9994
RA_OF_ASC_NODE = 126.0145
ARG_OF_PERICENTER = 282.3672
MEAN_ANOMALY   = 274.8872

EPHEMERIS_TYPE = 0
CLASSIFICATION_TYPE = U
NORAD_CAT_ID   = 67520
ELEMENT_SET_NO = 999
REV_AT_EPOCH   = 417
BSTAR          = -.20530721E-1
MEAN_MOTION_DOT = -.1916853E-1
MEAN_MOTION_DDOT = 0

CCSDS_OMM_VERS = 2.0
CREATION_DATE  = 
ORIGINATOR     = 

OBJECT_NAME    = STARLINK-36444
OBJECT_ID      = 2026-012AE
CENTER_NAME    = EARTH
REF_FRAME      = TEME
TIME_SYSTEM    = UTC
MEAN_ELEMENT_THEORY = SGP/SGP4

EPOCH          = 2026-02-07T14:00:01.999872
MEAN_MOTION    = 15.64407994
ECCENTRICITY   = .00010984
INCLINATION    = 42.9994
RA_OF_ASC_NODE = 126.0891
ARG_OF_PERICENTER = 289.1454
MEAN_ANOMALY   = 238.3753

EPHEMERIS_TYPE = 0
CLASSIFICATION_TYPE = U
NORAD_CAT_ID   = 67521
ELEMENT_SET_NO = 999
REV_AT_EPOCH   = 417
BSTAR          = -.21876445E-1
MEAN_MOTION_DOT = -.1909726E-1
MEAN_MOTION_DDOT = 0

CCSDS_OMM_VERS = 2.0
CREATION_DATE  = 
ORIGINATOR     = 

OBJECT_NAME    = HULIANWANG DIGUI-146
OBJECT_ID      = 2026-013A
CENTER_NAME    = EARTH
REF_FRAME      = TEME
TIME_SYSTEM    = UTC
MEAN_ELEMENT_THEORY = SGP/SGP4

EPOCH          = 2026-02-07T03:39:21.229920
MEAN_MOTION    = 13.85084532
ECCENTRICITY   = .00008028
INCLINATION    = 50.0086
RA_OF_ASC_NODE = 109.7340
ARG_OF_PERICENTER = 330.0711
MEAN_ANOMALY   = 30.0139

EPHEMERIS_TYPE = 0
CLASSIFICATION_TYPE = U
NORAD_CAT_ID   = 67522
ELEMENT_SET_NO = 999
REV_AT_EPOCH   = 263
BSTAR          = .13984811E-3
MEAN_MOTION_DOT = .15E-6
MEAN_MOTION_DDOT = 0

CCSDS_OMM_VERS = 2.0
CREATION_DATE  = 
ORIGINATOR     = 

OBJECT_NAME    = HULIANWANG DIGUI-147
OBJECT_ID      = 2026-013B
CENTER_NAME    = EARTH
REF_FRAME      = TEME
TIME_SYSTEM    = UTC
MEAN_ELEMENT_THEORY = SGP/SGP4

EPOCH          = 2026-02-07T03:37:07.727232
MEAN_MOTION    = 13.85068270
ECCENTRICITY   = .00010043
INCLINATION    = 50.0047
RA_OF_ASC_NODE = 109.7100
ARG_OF_PERICENTER = 18.7436
MEAN_ANOMALY   = 341.3497

EPHEMERIS_TYPE = 0
CLASSIFICATION_TYPE = U
NORAD_CAT_ID   = 67523
ELEMENT_SET_NO = 999
REV_AT_EPOCH   = 263
BSTAR          = .13113892E-3
MEAN_MOTION_DOT = .5E-7
MEAN_MOTION_DDOT = 0

